H-2A R/B                
1 28932U 06002B   26089.39177968  .00013995  00000+0  68904-3 0  9993
2 28932  98.2444 238.2081 0052456 170.2321 189.9943 15.16885803 97575
RESURS-DK 1             
1 29228U 06021A   26089.42968161  .00002908  00000+0  17097-3 0  9999
2 29228  69.9340 183.3733 0001367  48.5323 311.5960 15.12873252 90668
CZ-4B R/B               
1 29507U 06046C   26089.38702298  .00006508  00000+0  32723-3 0  9991
2 29507  97.5555 134.2388 0032854 193.0829 166.9555 15.17114725 63183
CZ-2C R/B               
1 31114U 07010B   26089.29736538  .00000165  00000+0  94804-4 0  9996
2 31114  98.4000 201.5455 0058131 233.5654 126.0156 14.20253738982646
COSMO-SKYMED 1          
1 31598U 07023A   26089.52443093  .00004796  00000+0  42526-3 0  9990
2 31598  97.8869 280.7267 0001090 102.9005 257.2337 14.96686547 18020
COSMOS 2428             
1 31792U 07029A   26089.49003419 -.00000018  00000+0  16119-4 0  9996
2 31792  70.9430 159.6880 0009708 255.5741 104.4303 14.12948520967033
SL-16 R/B               
1 31793U 07029B   26089.49969457 -.00000018  00000+0  15384-4 0  9993
2 31793  70.9746 128.6422 0002789 277.9480 187.3622 14.14843620968315
KORONAS-FOTON           
1 33504U 09003A   26089.50874498  .00018100  00000+0  39659-3 0  9991
2 33504  82.4274 254.2214 0011671  82.0695 278.1877 15.43890614948956
CZ-2C R/B               
1 37731U 11030B   26089.49678559  .00001873  00000+0  24180-3 0  9990
2 37731  97.8579  46.3492 0051032 283.1622 199.2649 14.81295610793175
H-2A R/B                
1 38341U 12025E   26089.47362052  .00003994  00000+0  36207-3 0  9998
2 38341  98.4766  58.1904 0042831 244.0709 115.6093 14.95316131751329
SHIJIAN-16 (SJ-16)      
1 39358U 13057A   26089.54456139  .00001378  00000+0  13702-3 0  9990
2 39358  74.9726 145.6098 0015269  58.4849 301.7828 14.92426482674614
SL-4 R/B                
1 39679U 14021B   26089.14114099  .00023819  00000+0  50981-3 0  9994
2 39679  51.6054 237.4532 0095266 177.5547 182.5922 15.39903339659427
