CCSDS_OMM_VERS = 2.0
CREATION_DATE  = 
ORIGINATOR     = 

OBJECT_NAME    = H-2A R/B
OBJECT_ID      = 2006-002B
CENTER_NAME    = EARTH
REF_FRAME      = TEME
TIME_SYSTEM    = UTC
MEAN_ELEMENT_THEORY = SGP/SGP4

EPOCH          = 2026-03-30T09:24:09.764352
MEAN_MOTION    = 15.16885803
ECCENTRICITY   = .0052456
INCLINATION    = 98.2444
RA_OF_ASC_NODE = 238.2081
ARG_OF_PERICENTER = 170.2321
MEAN_ANOMALY   = 189.9943

EPHEMERIS_TYPE = 0
CLASSIFICATION_TYPE = U
NORAD_CAT_ID   = 28932
ELEMENT_SET_NO = 999
REV_AT_EPOCH   = 9757
BSTAR          = .68904E-3
MEAN_MOTION_DOT = .13995E-3
MEAN_MOTION_DDOT = 0

CCSDS_OMM_VERS = 2.0
CREATION_DATE  = 
ORIGINATOR     = 

OBJECT_NAME    = RESURS-DK 1
OBJECT_ID      = 2006-021A
CENTER_NAME    = EARTH
REF_FRAME      = TEME
TIME_SYSTEM    = UTC
MEAN_ELEMENT_THEORY = SGP/SGP4

EPOCH          = 2026-03-30T10:18:44.491104
MEAN_MOTION    = 15.12873252
ECCENTRICITY   = .0001367
INCLINATION    = 69.9340
RA_OF_ASC_NODE = 183.3733
ARG_OF_PERICENTER = 48.5323
MEAN_ANOMALY   = 311.5960

EPHEMERIS_TYPE = 0
CLASSIFICATION_TYPE = U
NORAD_CAT_ID   = 29228
ELEMENT_SET_NO = 999
REV_AT_EPOCH   = 9066
BSTAR          = .17097E-3
MEAN_MOTION_DOT = .2908E-4
MEAN_MOTION_DDOT = 0

CCSDS_OMM_VERS = 2.0
CREATION_DATE  = 
ORIGINATOR     = 

OBJECT_NAME    = CZ-4B R/B
OBJECT_ID      = 2006-046C
CENTER_NAME    = EARTH
REF_FRAME      = TEME
TIME_SYSTEM    = UTC
MEAN_ELEMENT_THEORY = SGP/SGP4

EPOCH          = 2026-03-30T09:17:18.785472
MEAN_MOTION    = 15.17114725
ECCENTRICITY   = .0032854
INCLINATION    = 97.5555
RA_OF_ASC_NODE = 134.2388
ARG_OF_PERICENTER = 193.0829
MEAN_ANOMALY   = 166.9555

EPHEMERIS_TYPE = 0
CLASSIFICATION_TYPE = U
NORAD_CAT_ID   = 29507
ELEMENT_SET_NO = 999
REV_AT_EPOCH   = 6318
BSTAR          = .32723E-3
MEAN_MOTION_DOT = .6508E-4
MEAN_MOTION_DDOT = 0

CCSDS_OMM_VERS = 2.0
CREATION_DATE  = 
ORIGINATOR     = 

OBJECT_NAME    = CZ-2C R/B
OBJECT_ID      = 2007-010B
CENTER_NAME    = EARTH
REF_FRAME      = TEME
TIME_SYSTEM    = UTC
MEAN_ELEMENT_THEORY = SGP/SGP4

EPOCH          = 2026-03-30T07:08:12.368832
MEAN_MOTION    = 14.20253738
ECCENTRICITY   = .0058131
INCLINATION    = 98.4000
RA_OF_ASC_NODE = 201.5455
ARG_OF_PERICENTER = 233.5654
MEAN_ANOMALY   = 126.0156

EPHEMERIS_TYPE = 0
CLASSIFICATION_TYPE = U
NORAD_CAT_ID   = 31114
ELEMENT_SET_NO = 999
REV_AT_EPOCH   = 98264
BSTAR          = .94804E-4
MEAN_MOTION_DOT = .165E-5
MEAN_MOTION_DDOT = 0

CCSDS_OMM_VERS = 2.0
CREATION_DATE  = 
ORIGINATOR     = 

OBJECT_NAME    = COSMO-SKYMED 1
OBJECT_ID      = 2007-023A
CENTER_NAME    = EARTH
REF_FRAME      = TEME
TIME_SYSTEM    = UTC
MEAN_ELEMENT_THEORY = SGP/SGP4

EPOCH          = 2026-03-30T12:35:10.832352
MEAN_MOTION    = 14.96686547
ECCENTRICITY   = .000109
INCLINATION    = 97.8869
RA_OF_ASC_NODE = 280.7267
ARG_OF_PERICENTER = 102.9005
MEAN_ANOMALY   = 257.2337

EPHEMERIS_TYPE = 0
CLASSIFICATION_TYPE = U
NORAD_CAT_ID   = 31598
ELEMENT_SET_NO = 999
REV_AT_EPOCH   = 1802
BSTAR          = .42526E-3
MEAN_MOTION_DOT = .4796E-4
MEAN_MOTION_DDOT = 0

CCSDS_OMM_VERS = 2.0
CREATION_DATE  = 
ORIGINATOR     = 

OBJECT_NAME    = COSMOS 2428
OBJECT_ID      = 2007-029A
CENTER_NAME    = EARTH
REF_FRAME      = TEME
TIME_SYSTEM    = UTC
MEAN_ELEMENT_THEORY = SGP/SGP4

EPOCH          = 2026-03-30T11:45:38.954016
MEAN_MOTION    = 14.12948520
ECCENTRICITY   = .0009708
INCLINATION    = 70.9430
RA_OF_ASC_NODE = 159.6880
ARG_OF_PERICENTER = 255.5741
MEAN_ANOMALY   = 104.4303

EPHEMERIS_TYPE = 0
CLASSIFICATION_TYPE = U
NORAD_CAT_ID   = 31792
ELEMENT_SET_NO = 999
REV_AT_EPOCH   = 96703
BSTAR          = .16119E-4
MEAN_MOTION_DOT = -.18E-6
MEAN_MOTION_DDOT = 0

CCSDS_OMM_VERS = 2.0
CREATION_DATE  = 
ORIGINATOR     = 

OBJECT_NAME    = SL-16 R/B
OBJECT_ID      = 2007-029B
CENTER_NAME    = EARTH
REF_FRAME      = TEME
TIME_SYSTEM    = UTC
MEAN_ELEMENT_THEORY = SGP/SGP4

EPOCH          = 2026-03-30T11:59:33.610848
MEAN_MOTION    = 14.14843620
ECCENTRICITY   = .0002789
INCLINATION    = 70.9746
RA_OF_ASC_NODE = 128.6422
ARG_OF_PERICENTER = 277.9480
MEAN_ANOMALY   = 187.3622

EPHEMERIS_TYPE = 0
CLASSIFICATION_TYPE = U
NORAD_CAT_ID   = 31793
ELEMENT_SET_NO = 999
REV_AT_EPOCH   = 96831
BSTAR          = .15384E-4
MEAN_MOTION_DOT = -.18E-6
MEAN_MOTION_DDOT = 0

CCSDS_OMM_VERS = 2.0
CREATION_DATE  = 
ORIGINATOR     = 

OBJECT_NAME    = KORONAS-FOTON
OBJECT_ID      = 2009-003A
CENTER_NAME    = EARTH
REF_FRAME      = TEME
TIME_SYSTEM    = UTC
MEAN_ELEMENT_THEORY = SGP/SGP4

EPOCH          = 2026-03-30T12:12:35.566272
MEAN_MOTION    = 15.43890614
ECCENTRICITY   = .0011671
INCLINATION    = 82.4274
RA_OF_ASC_NODE = 254.2214
ARG_OF_PERICENTER = 82.0695
MEAN_ANOMALY   = 278.1877

EPHEMERIS_TYPE = 0
CLASSIFICATION_TYPE = U
NORAD_CAT_ID   = 33504
ELEMENT_SET_NO = 999
REV_AT_EPOCH   = 94895
BSTAR          = .39659E-3
MEAN_MOTION_DOT = .181E-3
MEAN_MOTION_DDOT = 0

CCSDS_OMM_VERS = 2.0
CREATION_DATE  = 
ORIGINATOR     = 

OBJECT_NAME    = CZ-2C R/B
OBJECT_ID      = 2011-030B
CENTER_NAME    = EARTH
REF_FRAME      = TEME
TIME_SYSTEM    = UTC
MEAN_ELEMENT_THEORY = SGP/SGP4

EPOCH          = 2026-03-30T11:55:22.274976
MEAN_MOTION    = 14.81295610
ECCENTRICITY   = .0051032
INCLINATION    = 97.8579
RA_OF_ASC_NODE = 46.3492
ARG_OF_PERICENTER = 283.1622
MEAN_ANOMALY   = 199.2649

EPHEMERIS_TYPE = 0
CLASSIFICATION_TYPE = U
NORAD_CAT_ID   = 37731
ELEMENT_SET_NO = 999
REV_AT_EPOCH   = 79317
BSTAR          = .2418E-3
MEAN_MOTION_DOT = .1873E-4
MEAN_MOTION_DDOT = 0

CCSDS_OMM_VERS = 2.0
CREATION_DATE  = 
ORIGINATOR     = 

OBJECT_NAME    = H-2A R/B
OBJECT_ID      = 2012-025E
CENTER_NAME    = EARTH
REF_FRAME      = TEME
TIME_SYSTEM    = UTC
MEAN_ELEMENT_THEORY = SGP/SGP4

EPOCH          = 2026-03-30T11:22:00.812928
MEAN_MOTION    = 14.95316131
ECCENTRICITY   = .0042831
INCLINATION    = 98.4766
RA_OF_ASC_NODE = 58.1904
ARG_OF_PERICENTER = 244.0709
MEAN_ANOMALY   = 115.6093

EPHEMERIS_TYPE = 0
CLASSIFICATION_TYPE = U
NORAD_CAT_ID   = 38341
ELEMENT_SET_NO = 999
REV_AT_EPOCH   = 75132
BSTAR          = .36207E-3
MEAN_MOTION_DOT = .3994E-4
MEAN_MOTION_DDOT = 0

CCSDS_OMM_VERS = 2.0
CREATION_DATE  = 
ORIGINATOR     = 

OBJECT_NAME    = SHIJIAN-16 (SJ-16)
OBJECT_ID      = 2013-057A
CENTER_NAME    = EARTH
REF_FRAME      = TEME
TIME_SYSTEM    = UTC
MEAN_ELEMENT_THEORY = SGP/SGP4

EPOCH          = 2026-03-30T13:04:10.104096
MEAN_MOTION    = 14.92426482
ECCENTRICITY   = .0015269
INCLINATION    = 74.9726
RA_OF_ASC_NODE = 145.6098
ARG_OF_PERICENTER = 58.4849
MEAN_ANOMALY   = 301.7828

EPHEMERIS_TYPE = 0
CLASSIFICATION_TYPE = U
NORAD_CAT_ID   = 39358
ELEMENT_SET_NO = 999
REV_AT_EPOCH   = 67461
BSTAR          = .13702E-3
MEAN_MOTION_DOT = .1378E-4
MEAN_MOTION_DDOT = 0

CCSDS_OMM_VERS = 2.0
CREATION_DATE  = 
ORIGINATOR     = 

OBJECT_NAME    = SL-4 R/B
OBJECT_ID      = 2014-021B
CENTER_NAME    = EARTH
REF_FRAME      = TEME
TIME_SYSTEM    = UTC
MEAN_ELEMENT_THEORY = SGP/SGP4

EPOCH          = 2026-03-30T03:23:14.581536
MEAN_MOTION    = 15.39903339
ECCENTRICITY   = .0095266
INCLINATION    = 51.6054
RA_OF_ASC_NODE = 237.4532
ARG_OF_PERICENTER = 177.5547
MEAN_ANOMALY   = 182.5922

EPHEMERIS_TYPE = 0
CLASSIFICATION_TYPE = U
NORAD_CAT_ID   = 39679
ELEMENT_SET_NO = 999
REV_AT_EPOCH   = 65942
BSTAR          = .50981E-3
MEAN_MOTION_DOT = .23819E-3
MEAN_MOTION_DDOT = 0

